<?xml version="1.0" encoding="UTF-8"?>
<ndm xmlns:xsi="http://www.w3.org/2001/XMLSchema-instance" xsi:noNamespaceSchemaLocation="https://sanaregistry.org/r/ndmxml_unqualified/ndmxml-2.0.0-master-2.0.xsd">
<omm id="CCSDS_OMM_VERS" version="2.0">
<header><CREATION_DATE/><ORIGINATOR/></header><body><segment><metadata><OBJECT_NAME>ONEWEB-0156</OBJECT_NAME><OBJECT_ID>2021-025L</OBJECT_ID><CENTER_NAME>EARTH</CENTER_NAME><REF_FRAME>TEME</REF_FRAME><TIME_SYSTEM>UTC</TIME_SYSTEM><MEAN_ELEMENT_THEORY>SGP4</MEAN_ELEMENT_THEORY></metadata><data><meanElements><EPOCH>2023-11-09T02:48:43.568352</EPOCH><MEAN_MOTION>13.13468208</MEAN_MOTION><ECCENTRICITY>.0001555</ECCENTRICITY><INCLINATION>87.8997</INCLINATION><RA_OF_ASC_NODE>149.4729</RA_OF_ASC_NODE><ARG_OF_PERICENTER>85.8733</ARG_OF_PERICENTER><MEAN_ANOMALY>274.2573</MEAN_ANOMALY></meanElements><tleParameters><EPHEMERIS_TYPE>0</EPHEMERIS_TYPE><CLASSIFICATION_TYPE>U</CLASSIFICATION_TYPE><NORAD_CAT_ID>48052</NORAD_CAT_ID><ELEMENT_SET_NO>999</ELEMENT_SET_NO><REV_AT_EPOCH>12873</REV_AT_EPOCH><BSTAR>-.26493E-3</BSTAR><MEAN_MOTION_DOT>-.84E-6</MEAN_MOTION_DOT><MEAN_MOTION_DDOT>0</MEAN_MOTION_DDOT></tleParameters></data></segment></body></omm>
<omm id="CCSDS_OMM_VERS" version="2.0">
<header><CREATION_DATE/><ORIGINATOR/></header><body><segment><metadata><OBJECT_NAME>ONEWEB-0161</OBJECT_NAME><OBJECT_ID>2021-025M</OBJECT_ID><CENTER_NAME>EARTH</CENTER_NAME><REF_FRAME>TEME</REF_FRAME><TIME_SYSTEM>UTC</TIME_SYSTEM><MEAN_ELEMENT_THEORY>SGP4</MEAN_ELEMENT_THEORY></metadata><data><meanElements><EPOCH>2023-11-09T02:09:07.927776</EPOCH><MEAN_MOTION>13.13470006</MEAN_MOTION><ECCENTRICITY>.0000877</ECCENTRICITY><INCLINATION>87.8981</INCLINATION><RA_OF_ASC_NODE>149.4877</RA_OF_ASC_NODE><ARG_OF_PERICENTER>83.9805</ARG_OF_PERICENTER><MEAN_ANOMALY>276.1424</MEAN_ANOMALY></meanElements><tleParameters><EPHEMERIS_TYPE>0</EPHEMERIS_TYPE><CLASSIFICATION_TYPE>U</CLASSIFICATION_TYPE><NORAD_CAT_ID>48053</NORAD_CAT_ID><ELEMENT_SET_NO>999</ELEMENT_SET_NO><REV_AT_EPOCH>12866</REV_AT_EPOCH><BSTAR>.67201E-3</BSTAR><MEAN_MOTION_DOT>.258E-5</MEAN_MOTION_DOT><MEAN_MOTION_DDOT>0</MEAN_MOTION_DDOT></tleParameters></data></segment></body></omm>
<omm id="CCSDS_OMM_VERS" version="2.0">
<header><CREATION_DATE/><ORIGINATOR/></header><body><segment><metadata><OBJECT_NAME>ONEWEB-0158</OBJECT_NAME><OBJECT_ID>2021-025N</OBJECT_ID><CENTER_NAME>EARTH</CENTER_NAME><REF_FRAME>TEME</REF_FRAME><TIME_SYSTEM>UTC</TIME_SYSTEM><MEAN_ELEMENT_THEORY>SGP4</MEAN_ELEMENT_THEORY></metadata><data><meanElements><EPOCH>2023-11-08T14:19:08.506272</EPOCH><MEAN_MOTION>13.13473451</MEAN_MOTION><ECCENTRICITY>.0002276</ECCENTRICITY><INCLINATION>87.8994</INCLINATION><RA_OF_ASC_NODE>149.5750</RA_OF_ASC_NODE><ARG_OF_PERICENTER>76.9508</ARG_OF_PERICENTER><MEAN_ANOMALY>283.1875</MEAN_ANOMALY></meanElements><tleParameters><EPHEMERIS_TYPE>0</EPHEMERIS_TYPE><CLASSIFICATION_TYPE>U</CLASSIFICATION_TYPE><NORAD_CAT_ID>48054</NORAD_CAT_ID><ELEMENT_SET_NO>999</ELEMENT_SET_NO><REV_AT_EPOCH>12871</REV_AT_EPOCH><BSTAR>-.27861E-4</BSTAR><MEAN_MOTION_DOT>.3E-7</MEAN_MOTION_DOT><MEAN_MOTION_DDOT>0</MEAN_MOTION_DDOT></tleParameters></data></segment></body></omm>
<omm id="CCSDS_OMM_VERS" version="2.0">
<header><CREATION_DATE/><ORIGINATOR/></header><body><segment><metadata><OBJECT_NAME>ONEWEB-0157</OBJECT_NAME><OBJECT_ID>2021-025P</OBJECT_ID><CENTER_NAME>EARTH</CENTER_NAME><REF_FRAME>TEME</REF_FRAME><TIME_SYSTEM>UTC</TIME_SYSTEM><MEAN_ELEMENT_THEORY>SGP4</MEAN_ELEMENT_THEORY></metadata><data><meanElements><EPOCH>2023-11-09T12:49:01.744608</EPOCH><MEAN_MOTION>13.13470042</MEAN_MOTION><ECCENTRICITY>.0001608</ECCENTRICITY><INCLINATION>87.8993</INCLINATION><RA_OF_ASC_NODE>149.4069</RA_OF_ASC_NODE><ARG_OF_PERICENTER>92.7256</ARG_OF_PERICENTER><MEAN_ANOMALY>267.4057</MEAN_ANOMALY></meanElements><tleParameters><EPHEMERIS_TYPE>0</EPHEMERIS_TYPE><CLASSIFICATION_TYPE>U</CLASSIFICATION_TYPE><NORAD_CAT_ID>48055</NORAD_CAT_ID><ELEMENT_SET_NO>999</ELEMENT_SET_NO><REV_AT_EPOCH>12878</REV_AT_EPOCH><BSTAR>.80681E-3</BSTAR><MEAN_MOTION_DOT>.307E-5</MEAN_MOTION_DOT><MEAN_MOTION_DDOT>0</MEAN_MOTION_DDOT></tleParameters></data></segment></body></omm>
<omm id="CCSDS_OMM_VERS" version="2.0">
<header><CREATION_DATE/><ORIGINATOR/></header><body><segment><metadata><OBJECT_NAME>ONEWEB-0162</OBJECT_NAME><OBJECT_ID>2021-025Q</OBJECT_ID><CENTER_NAME>EARTH</CENTER_NAME><REF_FRAME>TEME</REF_FRAME><TIME_SYSTEM>UTC</TIME_SYSTEM><MEAN_ELEMENT_THEORY>SGP4</MEAN_ELEMENT_THEORY></metadata><data><meanElements><EPOCH>2023-11-08T19:26:53.507328</EPOCH><MEAN_MOTION>13.13468554</MEAN_MOTION><ECCENTRICITY>.0001615</ECCENTRICITY><INCLINATION>87.8992</INCLINATION><RA_OF_ASC_NODE>149.5486</RA_OF_ASC_NODE><ARG_OF_PERICENTER>85.0024</ARG_OF_PERICENTER><MEAN_ANOMALY>275.1290</MEAN_ANOMALY></meanElements><tleParameters><EPHEMERIS_TYPE>0</EPHEMERIS_TYPE><CLASSIFICATION_TYPE>U</CLASSIFICATION_TYPE><NORAD_CAT_ID>48056</NORAD_CAT_ID><ELEMENT_SET_NO>999</ELEMENT_SET_NO><REV_AT_EPOCH>12865</REV_AT_EPOCH><BSTAR>-.72003E-3</BSTAR><MEAN_MOTION_DOT>-.25E-5</MEAN_MOTION_DOT><MEAN_MOTION_DDOT>0</MEAN_MOTION_DDOT></tleParameters></data></segment></body></omm>
<omm id="CCSDS_OMM_VERS" version="2.0">
<header><CREATION_DATE/><ORIGINATOR/></header><body><segment><metadata><OBJECT_NAME>ONEWEB-0155</OBJECT_NAME><OBJECT_ID>2021-025R</OBJECT_ID><CENTER_NAME>EARTH</CENTER_NAME><REF_FRAME>TEME</REF_FRAME><TIME_SYSTEM>UTC</TIME_SYSTEM><MEAN_ELEMENT_THEORY>SGP4</MEAN_ELEMENT_THEORY></metadata><data><meanElements><EPOCH>2023-11-09T12:24:38.668608</EPOCH><MEAN_MOTION>13.13468964</MEAN_MOTION><ECCENTRICITY>.0001193</ECCENTRICITY><INCLINATION>87.8993</INCLINATION><RA_OF_ASC_NODE>149.4150</RA_OF_ASC_NODE><ARG_OF_PERICENTER>93.6303</ARG_OF_PERICENTER><MEAN_ANOMALY>266.4963</MEAN_ANOMALY></meanElements><tleParameters><EPHEMERIS_TYPE>0</EPHEMERIS_TYPE><CLASSIFICATION_TYPE>U</CLASSIFICATION_TYPE><NORAD_CAT_ID>48057</NORAD_CAT_ID><ELEMENT_SET_NO>999</ELEMENT_SET_NO><REV_AT_EPOCH>12889</REV_AT_EPOCH><BSTAR>.42379E-5</BSTAR><MEAN_MOTION_DOT>.14E-6</MEAN_MOTION_DOT><MEAN_MOTION_DDOT>0</MEAN_MOTION_DDOT></tleParameters></data></segment></body></omm>
<omm id="CCSDS_OMM_VERS" version="2.0">
<header><CREATION_DATE/><ORIGINATOR/></header><body><segment><metadata><OBJECT_NAME>ONEWEB-0149</OBJECT_NAME><OBJECT_ID>2021-025S</OBJECT_ID><CENTER_NAME>EARTH</CENTER_NAME><REF_FRAME>TEME</REF_FRAME><TIME_SYSTEM>UTC</TIME_SYSTEM><MEAN_ELEMENT_THEORY>SGP4</MEAN_ELEMENT_THEORY></metadata><data><meanElements><EPOCH>2023-11-08T22:17:33.337248</EPOCH><MEAN_MOTION>13.13470655</MEAN_MOTION><ECCENTRICITY>.0002489</ECCENTRICITY><INCLINATION>87.8990</INCLINATION><RA_OF_ASC_NODE>149.5317</RA_OF_ASC_NODE><ARG_OF_PERICENTER>101.6393</ARG_OF_PERICENTER><MEAN_ANOMALY>258.5016</MEAN_ANOMALY></meanElements><tleParameters><EPHEMERIS_TYPE>0</EPHEMERIS_TYPE><CLASSIFICATION_TYPE>U</CLASSIFICATION_TYPE><NORAD_CAT_ID>48058</NORAD_CAT_ID><ELEMENT_SET_NO>999</ELEMENT_SET_NO><REV_AT_EPOCH>12861</REV_AT_EPOCH><BSTAR>-.5275E-3</BSTAR><MEAN_MOTION_DOT>-.18E-5</MEAN_MOTION_DOT><MEAN_MOTION_DDOT>0</MEAN_MOTION_DDOT></tleParameters></data></segment></body></omm>
<omm id="CCSDS_OMM_VERS" version="2.0">
<header><CREATION_DATE/><ORIGINATOR/></header><body><segment><metadata><OBJECT_NAME>ONEWEB-0148</OBJECT_NAME><OBJECT_ID>2021-025T</OBJECT_ID><CENTER_NAME>EARTH</CENTER_NAME><REF_FRAME>TEME</REF_FRAME><TIME_SYSTEM>UTC</TIME_SYSTEM><MEAN_ELEMENT_THEORY>SGP4</MEAN_ELEMENT_THEORY></metadata><data><meanElements><EPOCH>2023-11-08T19:36:02.496384</EPOCH><MEAN_MOTION>13.13475649</MEAN_MOTION><ECCENTRICITY>.0002395</ECCENTRICITY><INCLINATION>87.8990</INCLINATION><RA_OF_ASC_NODE>149.5584</RA_OF_ASC_NODE><ARG_OF_PERICENTER>96.9502</ARG_OF_PERICENTER><MEAN_ANOMALY>263.1899</MEAN_ANOMALY></meanElements><tleParameters><EPHEMERIS_TYPE>0</EPHEMERIS_TYPE><CLASSIFICATION_TYPE>U</CLASSIFICATION_TYPE><NORAD_CAT_ID>48059</NORAD_CAT_ID><ELEMENT_SET_NO>999</ELEMENT_SET_NO><REV_AT_EPOCH>12872</REV_AT_EPOCH><BSTAR>-.26601E-2</BSTAR><MEAN_MOTION_DOT>-.959E-5</MEAN_MOTION_DOT><MEAN_MOTION_DDOT>0</MEAN_MOTION_DDOT></tleParameters></data></segment></body></omm>

</ndm>
