ONEWEB-0156             
1 48052U 21025L   23313.11717093 -.00000084  00000+0 -26493-3 0  9990
2 48052  87.8997 149.4729 0001555  85.8733 274.2573 13.13468208128732
ONEWEB-0161             
1 48053U 21025M   23313.08967509  .00000258  00000+0  67201-3 0  9999
2 48053  87.8981 149.4877 0000877  83.9805 276.1424 13.13470006128662
ONEWEB-0158             
1 48054U 21025N   23312.59662623  .00000003  00000+0 -27861-4 0  9992
2 48054  87.8994 149.5750 0002276  76.9508 283.1875 13.13473451128716
ONEWEB-0157             
1 48055U 21025P   23313.53404797  .00000307  00000+0  80681-3 0  9998
2 48055  87.8993 149.4069 0001608  92.7256 267.4057 13.13470042128789
ONEWEB-0162             
1 48056U 21025Q   23312.81034152 -.00000250  00000+0 -72003-3 0  9991
2 48056  87.8992 149.5486 0001615  85.0024 275.1290 13.13468554128655
ONEWEB-0155             
1 48057U 21025R   23313.51711422  .00000014  00000+0  42379-5 0  9993
2 48057  87.8993 149.4150 0001193  93.6303 266.4963 13.13468964128891
ONEWEB-0149             
1 48058U 21025S   23312.92885807 -.00000180  00000+0 -52750-3 0  9995
2 48058  87.8990 149.5317 0002489 101.6393 258.5016 13.13470655128614
ONEWEB-0148             
1 48059U 21025T   23312.81669556 -.00000959  00000+0 -26601-2 0  9994
2 48059  87.8990 149.5584 0002395  96.9502 263.1899 13.13475649128726
